STRIX-ALPHA             
1 47253U 20098A   23164.86644446  .00062194  00000+0  10948-2 0  9993
2 47253  97.2716  56.2594 0003848 337.2629  22.8451 15.50241478138956
CMS-01                  
1 47256U 20099A   23164.34841052 -.00000164  00000+0  00000+0 0  9997
2 47256   0.0425 114.7514 0004213 163.0650 191.9952  1.00269079  9178
ONEWEB-0102             
1 47258U 20100A   23164.87070405  .00000251  00000+0  66353-3 0  9999
2 47258  87.8998 209.1255 0001735  93.8773 266.2554 13.12446044120534
ONEWEB-0109             
1 47259U 20100B   23164.88129076  .00000367  00000+0  98447-3 0  9997
2 47259  87.9014 209.1283 0002097  92.8534 267.2834 13.12443887120367
ONEWEB-0110             
1 47260U 20100C   23164.82834144 -.00000107  00000+0 -33308-3 0  9991
2 47260  87.9012 209.1074 0001858  90.0100 270.1241 13.12443364120521
ONEWEB-0111             
1 47261U 20100D   23164.86012488 -.00000034  00000+0 -13115-3 0  9998
2 47261  87.9013 209.0847 0001915  94.5919 265.5428 13.12441801120362
ONEWEB-0114             
1 47262U 20100E   23164.89189238  .00000377  00000+0  10118-2 0  9997
2 47262  87.9013 209.1047 0001681 108.5566 251.5745 13.12442078120320
ONEWEB-0117             
1 47263U 20100F   23164.88341383  .00000446  00000+0  12056-2 0  9998
2 47263  87.9017 209.1369 0002104  94.2099 265.9270 13.12444050120330
ONEWEB-0118             
1 47264U 20100G   23164.83894463 -.00001184  00000+0 -33282-2 0  9992
2 47264  87.8995 209.0940 0002130 114.2632 245.8719 13.12444313120522
ONEWEB-0119             
1 47265U 20100H   23164.86648743  .00000177  00000+0  45554-3 0  9999
2 47265  87.8999 209.1261 0002015  90.8395 269.2965 13.12444467120502
ONEWEB-0120             
1 47266U 20100J   23164.82094524  .00000147  00000+0  37451-3 0  9992
2 47266  87.9000 209.1227 0002012 100.2879 259.8476 13.12442130120528
ONEWEB-0121             
1 47267U 20100K   23164.87917136  .00000460  00000+0  12431-2 0  9999
2 47267  87.9009 209.1072 0002131  89.7029 270.4344 13.12444530120446
ONEWEB-0122             
1 47268U 20100L   23164.87284184  .00000307  00000+0  81742-3 0  9992
2 47268  87.9015 209.1086 0001882  93.1610 266.9734 13.12444122120356
ONEWEB-0123             
1 47269U 20100M   23164.86859184  .00000273  00000+0  72215-3 0  9997
2 47269  87.8999 209.1243 0002065  95.0999 265.0365 13.12444057120499
ONEWEB-0124             
1 47270U 20100N   23164.85587635 -.00000242  00000+0 -70687-3 0  9996
2 47270  87.9013 209.1159 0002172  83.5607 276.5769 13.12444660120374
ONEWEB-0125             
1 47271U 20100P   23164.83257833 -.00000234  00000+0 -68559-3 0  9995
2 47271  87.9017 209.1396 0002504  96.1316 264.0098 13.12440395120433
ONEWEB-0126             
1 47272U 20100Q   23164.85905100 -.00000095  00000+0 -29850-3 0  9991
2 47272  87.9015 209.1294 0001905  96.5138 263.6207 13.12444583120507
ONEWEB-0127             
1 47273U 20100R   23164.82201054  .00000099  00000+0  24071-3 0  9998
2 47273  87.8999 209.1219 0001998  96.3357 263.7999 13.12440568120528
ONEWEB-0128             
1 47274U 20100S   23164.84317227 -.00000476  00000+0 -13581-2 0  9995
2 47274  87.9006 209.0973 0001842  85.0739 275.0599 13.12443543120542
ONEWEB-0129             
1 47275U 20100T   23164.82412761  .00000090  00000+0  21427-3 0  9992
2 47275  87.9011 209.1480 0001617 147.3042 212.8187 13.12441905120476
ONEWEB-0130             
1 47276U 20100U   23164.84953815 -.00000331  00000+0 -95597-3 0  9994
2 47276  87.9014 209.1372 0002024  91.8020 268.3340 13.12444640120445
ONEWEB-0131             
1 47277U 20100V   23164.84743155 -.00000398  00000+0 -11427-2 0  9991
2 47277  87.9013 209.0820 0002069  87.8015 272.3350 13.12440510120482
ONEWEB-0132             
1 47278U 20100W   23164.87704902  .00000395  00000+0  10630-2 0  9992
2 47278  87.9014 209.0777 0001971  98.9206 261.2146 13.12445644120383
ONEWEB-0133             
1 47279U 20100X   23164.89400096  .00000205  00000+0  53359-3 0  9998
2 47279  87.9006 209.1090 0002108  91.6571 268.4799 13.12443619120543
ONEWEB-0134             
1 47280U 20100Y   23164.86222955 -.00000010  00000+0 -63589-4 0  9996
2 47280  87.9010 209.1018 0001779  89.4288 270.7044 13.12444302120519
ONEWEB-0135             
1 47281U 20100Z   23164.83045867 -.00000156  00000+0 -46999-3 0  9995
2 47281  87.8999 209.1164 0001885  93.1974 266.9371 13.12443639120533
ONEWEB-0136             
1 47282U 20100AA  23164.16551315 -.00000180  00000+0 -53626-3 0  9994
2 47282  87.9014 209.2796 0001446  87.6269 272.5025 13.12444894120378
ONEWEB-0137             
1 47283U 20100AB  23164.88764312  .00000429  00000+0  11575-2 0  9997
2 47283  87.9013 209.1026 0002044  98.8146 261.3214 13.12444964120370
ONEWEB-0138             
1 47284U 20100AC  23164.86435437  .00000013  00000+0  47283-6 0  9997
2 47284  87.9014 209.1182 0001966  94.9111 265.2242 13.12442796120450
ONEWEB-0139             
1 47285U 20100AD  23164.83682409 -.00000378  00000+0 -10853-2 0  9993
2 47285  87.8998 209.1582 0001907  89.9091 270.2256 13.12441285120522
ONEWEB-0140             
1 47286U 20100AE  23164.85800999 -.00001607  00000+0 -45012-2 0  9993
2 47286  87.9016 209.0940 0001804  91.9018 268.2317 13.12451299120497
ONEWEB-0141             
1 47287U 20100AF  23164.88026499  .00000448  00000+0  12103-2 0  9997
2 47287  87.9014 209.0875 0002364 101.2623 258.8771 13.12440594120486
ONEWEB-0142             
1 47288U 20100AG  23164.87177279  .00000272  00000+0  72012-3 0  9991
2 47288  87.9014 209.1410 0002000  96.8611 263.2745 13.12441509120473
ONEWEB-0143             
1 47289U 20100AH  23164.82625384 -.00000070  00000+0 -22972-3 0  9990
2 47289  87.9011 209.1097 0002104  92.8152 267.3217 13.12440895120446
ONEWEB-0144             
1 47290U 20100AJ  23164.87495514  .00000323  00000+0  86271-3 0  9998
2 47290  87.9014 209.1165 0001680  99.9549 260.1769 13.12443376120375
ONEWEB-0145             
1 47291U 20100AK  23164.84527832 -.00000428  00000+0 -12257-2 0  9995
2 47291  87.9006 209.1167 0002042  96.4096 263.7265 13.12440651120565
ONEWEB-0146             
1 47292U 20100AL  23164.84106107 -.00000394  00000+0 -11316-2 0  9991
2 47292  87.9019 209.1393 0002576  87.5074 272.6350 13.12441376120479
ONEWEB-0147             
1 47293U 20100AM  23164.88553516  .00000479  00000+0  12948-2 0  9990
2 47293  87.9014 209.0894 0001626  89.7658 270.3657 13.12443064120377
YUANGUANG               
1 47296U 20102A   23164.85669596  .00019312  00000+0  58225-3 0  9993
2 47296  97.4312 265.4658 0004908 246.8311 113.2415 15.34339523137510
HAISI 1                 
1 47297U 20102B   23164.89598935  .00017013  00000+0  59954-3 0  9992
2 47297  97.4286 263.5421 0004356 235.7445 124.3383 15.29345405137382
XJY-7                   
1 47298U 20102C   23164.84318567  .00014324  00000+0  59985-3 0  9995
2 47298  97.3877 262.4470 0006112 162.3934 197.7516 15.23633509137639
TIANQI-8                
1 47299U 20102D   23164.83787033  .00018957  00000+0  56938-3 0  9994
2 47299  97.4333 266.6244 0003668 203.1393 156.9685 15.34467385137575
ET-SMART-RSS            
1 47300U 20102E   23164.86812360  .00063506  00000+0  10566-2 0  9998
2 47300  97.4345 272.0259 0004074 183.7255 176.3967 15.51827921137923
YAOGAN-33               
1 47302U 20103A   23164.85017142  .00000559  00000+0  12814-3 0  9993
2 47302  98.1722  56.0442 0000560  82.7297 277.3966 14.59267158130994
WEINA 2                 
1 47303U 20103B   23164.88368277  .00001085  00000+0  23405-3 0  9998
2 47303  98.1754  56.5485 0003775  61.2865 298.8715 14.60337090131015
TURKSAT 5A              
1 47306U 21001A   23164.78388902  .00000156  00000+0  00000+0 0  9995
2 47306   0.0343  93.9234 0000143  79.5393  41.4781  1.00271706  8957
CAPE-3                  
1 47309U 21002A   23164.28364793  .00030282  00000+0  73274-3 0  9996
2 47309  60.6778  75.0708 0012935 187.5179 172.5725 15.40912027133685
RADFXSAT-2 (AO-109)     
1 47311U 21002C   23164.73488370  .00024099  00000+0  62730-3 0  9991
2 47311  60.6817  71.8111 0012739 177.2397 182.8770 15.38796019133754
MITEE-1                 
1 47314U 21002F   23164.14724936  .04830041  96744-5  16319-2 0  9993
2 47314  60.6485  33.8308 0015379 254.6643 105.2792 16.24775066134367
CP12 (EXOCUBE 2)        
1 47319U 21002L   23164.14783792  .00022044  00000+0  58979-3 0  9998
2 47319  60.6796  76.2068 0013025 181.9399 178.1647 15.37992612133590
TIANTONG-1 3            
1 47321U 21003A   23164.86562889 -.00000154  00000+0  00000+0 0  9990
2 47321   3.6439 308.8162 0003353 147.6605 198.5968  1.00272120  8936
GMS-T                   
1 47346U 21004A   23164.89799066 -.00000001  00000+0 -24876-4 0  9994
2 47346  90.0570 232.1440 0003984 128.0815 232.0676 13.16609863114940
STARLINK-2011           
1 47350U 21005B   23164.90359422  .00005576  00000+0  39281-3 0  9995
2 47350  53.0528 229.8318 0001178  72.0025 288.1092 15.06413768132355
STARLINK-2017           
1 47351U 21005C   23164.79944388  .00002674  00000+0  19834-3 0  9992
2 47351  53.0531 190.2894 0000693  88.7950 271.3118 15.06398057132897
STARLINK-2034           
1 47352U 21005D   23164.88517048  .00001155  00000+0  96454-4 0  9999
2 47352  53.0522 229.9081 0002694  71.0564 289.0717 15.06402110132342
STARLINK-2045           
1 47353U 21005E   23164.24334894  .00001581  00000+0  12501-3 0  9999
2 47353  53.0535 177.7943 0000983  89.7178 270.3924 15.06405687133021
STARLINK-2046           
1 47354U 21005F   23164.25624956  .00002271  00000+0  17129-3 0  9990
2 47354  53.0522 197.7389 0001039  89.1270 270.9838 15.06408589132746
STARLINK-2047           
1 47355U 21005G   23164.27789998  .00001117  00000+0  93814-4 0  9995
2 47355  53.0538 182.6424 0000934  92.3719 267.7377 15.06405956132954
STARLINK-2049           
1 47356U 21005H   23164.78840751  .00002701  00000+0  20004-3 0  9997
2 47356  53.0525 200.3503 0001163  77.2027 282.9092 15.06413976132758
STARLINK-2050           
1 47357U 21005J   23164.59766146  .00014799  00000+0  10095-2 0  9990
2 47357  53.0550 231.2013 0001162  88.7629 271.3493 15.06428887132305
